OBJECT_NAME,OBJECT_ID,EPOCH,MEAN_MOTION,ECCENTRICITY,INCLINATION,RA_OF_ASC_NODE,ARG_OF_PERICENTER,MEAN_ANOMALY,EPHEMERIS_TYPE,CLASSIFICATION_TYPE,NORAD_CAT_ID,ELEMENT_SET_NO,REV_AT_EPOCH,BSTAR,MEAN_MOTION_DOT,MEAN_MOTION_DDOT
CUTE-1 (CO-55),2003-031E,2026-07-01T22:18:47.284416,14.24344785,.00104007,98.6736,191.3031,137.2748,222.9241,0,U,27844,999,19377,.15102832E-3,.305E-5,0
CUBESAT XI-IV (CO-57),2003-031J,2026-07-01T12:05:34.996992,14.23628338,.00098783,98.6768,190.5840,155.7692,204.3953,0,U,27848,999,19341,.12754573E-3,.247E-5,0
CUBESAT XI-V,2005-043F,2026-07-01T22:37:51.348288,14.72672414,.00146567,98.3000,338.8758,154.4297,205.7638,0,U,28895,999,10392,.25709852E-3,.1588E-4,0
CUTE-1.7+APD II (CO-65),2008-021C,2026-07-01T21:33:39.803040,15.09593222,.00082239,97.8281,164.6245,350.5158,9.5914,0,U,32785,999,98741,.4300781E-3,.685E-4,0
CANX-2,2008-021H,2026-07-01T21:48:40.259520,15.05719826,.00101228,97.8635,162.9739,3.8303,356.2999,0,U,32790,999,98702,.31665177E-3,.452E-4,0
SEEDS II (CO-66),2008-021J,2026-07-01T22:51:57.380544,15.33260854,.00013766,97.7519,181.5604,189.0732,171.0485,0,U,32791,999,98955,.70776567E-3,.22706E-3,0
SWISSCUBE,2009-051B,2026-07-01T16:09:10.001952,14.62508928,.00070161,98.4025,90.8133,156.6940,203.4580,0,U,35932,999,89127,.21580976E-3,.1045E-4,0
BEESAT-1,2009-051C,2026-07-01T23:07:54.883488,14.61744129,.00052412,98.3951,90.7133,166.7581,193.3758,0,U,35933,999,89134,.18879774E-3,.892E-5,0
ITUPSAT1,2009-051E,2026-07-01T06:46:52.054752,14.60461628,.00070704,98.4035,89.1986,185.0409,175.0721,0,U,35935,999,89079,.18802404E-3,.863E-5,0
TISAT 1,2010-035E,2026-07-01T19:31:19.496640,15.32268645,.00032977,98.0711,130.6661,144.1100,216.0362,0,U,36799,999,86994,.81328932E-3,.25312E-3,0
AEROCUBE 4.5A,2012-048K,2026-06-29T19:35:03.540480,16.17962819,.00188678,64.6148,340.0554,267.4936,92.4076,0,U,38767,999,37468,.11805476E-2,.2026816E-1,.7424434E-5
STRAND-1,2013-009E,2026-07-01T17:54:28.948032,14.37172065,.00085716,98.3926,2.6224,179.3400,180.7800,0,U,39090,999,69915,.11575981E-3,.302E-5,0
BRITE-AUSTRIA,2013-009F,2026-07-01T18:22:05.997216,14.36547861,.00099107,98.4000,1.8406,189.9441,170.1551,0,U,39091,999,69914,.77359982E-4,.185E-5,0
NEE-01 PEGASO,2013-018B,2026-07-01T20:51:43.375392,14.93732566,.00137566,98.1239,327.5057,114.3640,245.9017,0,U,39151,999,71289,.29449675E-3,.3062E-4,0
POPACS 2,2013-055E,2026-06-30T04:38:01.187520,14.91555130,.04162574,80.9915,129.3032,152.0121,210.4183,0,U,39269,999,66515,.23496664E-3,.14049E-3,0
POPACS 3,2013-055F,2026-07-01T19:44:37.509504,14.56396826,.05505532,80.9994,213.3170,25.4491,337.2744,0,U,39270,999,64068,.28036623E-3,.11868E-3,0
ZACUBE-1 (TSHEPISOSAT),2013-066B,2026-07-01T22:30:29.685312,15.01269498,.00428609,97.8041,145.3497,197.9442,162.0271,0,U,39417,999,68294,.28696859E-3,.3697E-4,0
WNISAT-1,2013-066H,2026-07-01T21:31:44.030496,14.58093688,.01629296,97.7220,331.0105,185.0793,174.8762,0,U,39423,999,66887,.25666816E-3,.137E-4,0
TRITON-1,2013-066M,2026-07-01T19:33:11.852928,14.81749837,.00894333,97.8242,92.2890,185.6689,174.3520,0,U,39427,999,67625,.11595395E-3,.922E-5,0
GOMX-1,2013-066Q,2026-07-01T21:27:04.783104,14.69508337,.01294304,97.6470,22.4282,30.8177,330.0546,0,U,39430,999,67207,.24016048E-3,.1568E-4,0
CUBEBUG-2 (LO-74),2013-066AA,2026-07-01T19:11:19.592448,14.93882399,.00567683,97.8913,131.8405,340.7514,19.1560,0,U,39440,999,67917,.48671059E-3,.5278E-4,0
NEE-02 KRYSAOR,2013-066AB,2026-07-01T19:33:06.175584,14.86686631,.00666669,97.8896,121.9256,23.1658,337.2539,0,U,39441,999,67837,.29596781E-3,.268E-4,0
FUNCUBE-1 (AO-73),2013-066AE,2026-07-01T21:42:35.583264,15.09668727,.00372443,97.8285,154.6596,150.9783,209.3527,0,U,39444,999,68188,.47967094E-3,.7784E-4,0
UWE-3,2013-066AG,2026-07-01T20:28:32.383776,14.97133222,.00471281,97.8710,139.0279,271.0445,88.5377,0,U,39446,999,67977,.29591236E-3,.3431E-4,0
BRITE-CA1 (TORONTO),2014-033L,2026-07-01T22:01:19.221312,14.72701096,.00775703,97.9758,311.5755,229.0817,130.3657,0,U,40020,999,64438,.16349302E-3,.1039E-4,0
DUCHIFAT-1,2014-033M,2026-07-01T21:49:32.989440,15.67833867,.00000749,98.0444,244.1727,189.5033,170.6224,0,U,40021,999,65805,.13105052E-2,.146119E-2,0
NANOSATC-BR1,2014-033Q,2026-07-01T20:08:26.347776,15.31932929,.00052256,98.0709,216.5292,127.8773,232.2940,0,U,40024,999,65622,.70109883E-3,.21575E-3,0
QB50P1,2014-033R,2026-07-01T20:18:28.981728,15.18484138,.00093382,98.0959,195.0218,165.1158,195.0351,0,U,40025,999,65525,.51613824E-3,.10583E-3,0
QB50P2,2014-033Y,2026-07-01T23:00:11.473632,15.15351807,.00090992,98.0749,180.7598,120.4124,239.8007,0,U,40032,999,65490,.47265337E-3,.8852E-4,0
PERSEUS-M2,2014-033AD,2026-07-01T21:59:45.000384,14.95550350,.00104231,97.9971,133.7585,250.0541,109.9557,0,U,40037,999,65298,.72197546E-4,.74E-5,0
